{"version": 0.6, "generator": "Overpass API 0.7.62.7 375dc00a", "osm3s": {"timestamp_osm_base": "2025-06-26T16:32:51Z", "copyright": "The data included in this document is from www.openstreetmap.org. The data is made available under ODbL."}, "elements": [{"type": "node", "id": 20978269, "lat": -33.7101029, "lon": 150.3751984, "tags": {"addr:housenumber": "195", "addr:street": "Great Western Highway", "amenity": "fast_food", "check_date": "2025-01-26", "cuisine": "pizza;ribs;kebab", "name": "Wenty Kebabs & Pizza"}}, {"type": "node", "id": 20979378, "lat": -33.7089647, "lon": 150.3757231, "tags": {"amenity": "fast_food", "check_date": "2025-01-26", "name": "The Falls Take-Away"}}, {"type": "node", "id": 418188021, "lat": -33.7575549, "lon": 150.6124803, "tags": {"amenity": "fast_food", "name": "Professors Charcoal Chicken"}}, {"type": "node", "id": 426899445, "lat": -33.7448402, "lon": 150.6106855, "tags": {"amenity": "fast_food", "name": "Get Plucked Charcoal Chicken", "source": "survey"}}, {"type": "node", "id": 426899456, "lat": -33.743748, "lon": 150.6091001, "tags": {"amenity": "fast_food", "cuisine": "pizza", "name": "Michaelangelo's Pizzeria", "source": "survey"}}, {"type": "node", "id": 426899458, "lat": -33.7434377, "lon": 150.6085191, "tags": {"amenity": "fast_food", "brand": "Subway", "brand:wikidata": "Q244457", "brand:wikipedia": "en:Subway (restaurant)", "cuisine": "sandwich", "name": "Subway", "operator": "Subway", "source": "survey", "takeaway": "yes"}}, {"type": "node", "id": 427492049, "lat": -33.7439469, "lon": 150.6092148, "tags": {"amenity": "fast_food", "cuisine": "chinese", "name": "Stella Kitchen Chinese Takeaway", "source": "survey"}}, {"type": "node", "id": 559979555, "lat": -33.7458981, "lon": 150.6136961, "tags": {"amenity": "fast_food", "brand": "McDonald's", "brand:wikidata": "Q38076", "brand:wikipedia": "en:McDonald's", "cuisine": "burger", "name": "McDonald's", "takeaway": "yes"}}, {"type": "node", "id": 3479931443, "lat": -33.7136727, "lon": 150.3307215, "tags": {"addr:housenumber": "185", "addr:postcode": "2780", "addr:state": "NSW", "addr:street": "Leura Mall", "addr:suburb": "Leura", "amenity": "fast_food", "cuisine": "pizza", "name": "Pizza Sublime", "takeaway": "yes"}}, {"type": "node", "id": 5237464913, "lat": -33.7129033, "lon": 150.3119704, "tags": {"amenity": "fast_food", "diet:vegetarian": "yes", "name": "Gazi Pizza & Pide", "opening_hours:signed": "no", "phone": "+61 2 4782 9115"}}, {"type": "node", "id": 6359586643, "lat": -33.7161094, "lon": 150.3113509, "tags": {"addr:housenumber": "162", "addr:postcode": "2780", "addr:state": "NSW", "addr:street": "Katoomba Street", "addr:suburb": "Katoomba", "amenity": "fast_food", "brand": "Domino's", "brand:wikidata": "Q839466", "brand:wikipedia": "en:Domino's Pizza", "cuisine": "pizza", "drive_through": "no", "name": "Domino's", "opening_hours": "Su-Th 11:00-23:00; Fr,Sa 11:00-01:00", "takeaway": "yes"}}, {"type": "node", "id": 6449309029, "lat": -33.7127156, "lon": 150.3309234, "tags": {"addr:housenumber": "141", "addr:postcode": "2780", "addr:state": "NSW", "addr:street": "Leura Mall", "addr:suburb": "Leura", "amenity": "fast_food", "name": "Leura Village Takeaway", "opening_hours": "Mo-Sa 09:30-19:00; Su 09:30-15:30"}}, {"type": "node", "id": 6467386665, "lat": -33.7201888, "lon": 150.4290216, "tags": {"amenity": "fast_food", "brand": "Subway", "brand:wikidata": "Q244457", "cuisine": "sandwich", "name": "Subway", "takeaway": "yes", "website": "https://www.subway.com/en-AU"}}, {"type": "node", "id": 6690336854, "lat": -33.6990794, "lon": 150.5680897, "tags": {"amenity": "fast_food", "cuisine": "chicken", "name": "Charcoal Chicken Spot"}}, {"type": "node", "id": 6690336864, "lat": -33.6990267, "lon": 150.5674319, "tags": {"amenity": "fast_food", "brand": "Subway", "brand:wikidata": "Q244457", "brand:wikipedia": "en:Subway (restaurant)", "cuisine": "sandwich", "name": "Subway", "takeaway": "yes"}}, {"type": "node", "id": 6690336875, "lat": -33.6989623, "lon": 150.5670597, "tags": {"amenity": "fast_food", "name": "Springwood Kebab & Pide House"}}, {"type": "node", "id": 6694608494, "lat": -33.6989527, "lon": 150.5647061, "tags": {"amenity": "fast_food", "name": "The Golden Bars Milk Bar"}}, {"type": "node", "id": 6694608496, "lat": -33.6989494, "lon": 150.5645901, "tags": {"amenity": "fast_food", "cuisine": "chicken", "name": "BBQ Chicken Shop"}}, {"type": "node", "id": 6784997342, "lat": -33.6711023, "lon": 150.608546, "tags": {"addr:housenumber": "14-28", "addr:street": "White Cross Road", "addr:unit": "K2", "amenity": "fast_food", "brand": "Donut King", "brand:wikidata": "Q5296921", "brand:wikipedia": "en:Donut King", "cuisine": "donut;coffee_shop", "name": "Donut King", "takeaway": "yes"}}, {"type": "node", "id": 6938148746, "lat": -33.7136338, "lon": 150.3115118, "tags": {"amenity": "fast_food", "cuisine": "fish_and_chips", "name": "Cattlefish", "opening_hours": "Mo-Sa 10:00-20:00; Su 10:30-19:30"}}, {"type": "node", "id": 6938593141, "lat": -33.7152454, "lon": 150.3112261, "tags": {"amenity": "fast_food", "cuisine": "chicken", "diet:vegetarian": "no", "name": "Poulets Chicken Express", "opening_hours:signed": "no", "wheelchair": "yes"}}, {"type": "node", "id": 6938593148, "lat": -33.7154352, "lon": 150.3111899, "tags": {"amenity": "fast_food", "cuisine": "lebanese", "name": "Cedar Kebab Cafe", "opening_hours": "Mo-Th 11:00-19:00; Fr 11:00-20:00; PH,Sa,Su off"}}, {"type": "node", "id": 7035504924, "lat": -33.7575921, "lon": 150.6128091, "tags": {"amenity": "fast_food", "name": "Turkish 2 Go", "website": "https://www.turkish2go.com.au/"}}, {"type": "node", "id": 7057810949, "lat": -33.6937964, "lon": 150.5474237, "tags": {"amenity": "fast_food", "cuisine": "burger;fish_and_chips", "name": "Faulconbridge Takeaway"}}, {"type": "node", "id": 8326535943, "lat": -33.714219, "lon": 150.3104296, "tags": {"addr:unit": "K1", "amenity": "fast_food", "cuisine": "japanese", "indoor_seating": "yes", "level": "0", "name": "Tokyo Sushi", "outdoor_seating": "no"}}, {"type": "node", "id": 8331958346, "lat": -33.7126092, "lon": 150.319418, "tags": {"amenity": "fast_food", "cuisine": "sandwich;breakfast", "name": "The Lunch Shop"}}, {"type": "node", "id": 8354045697, "lat": -33.7125429, "lon": 150.320569, "tags": {"amenity": "fast_food", "cuisine": "hot_dog", "description": "Bunnings snagstand open on the weekends", "name": "Bunnings Warehouse", "opening_hours": "Sa-Su", "opening_hours:covid19": "closed", "operator": "Bunnings Warehouse"}}, {"type": "node", "id": 8744329297, "lat": -33.7216793, "lon": 150.4531061, "tags": {"amenity": "fast_food", "name": "Hazelbrook Take Away Fish & Chips", "takeaway": "yes"}}, {"type": "node", "id": 9391373238, "lat": -33.671148, "lon": 150.6088138, "tags": {"addr:housenumber": "14-28", "addr:street": "White Cross Road", "addr:unit": "3", "amenity": "fast_food", "branch": "Winmalee", "brand": "Domino's", "brand:wikidata": "Q839466", "brand:wikipedia": "en:Domino's Pizza", "cuisine": "pizza", "name": "Domino's", "takeaway": "yes"}}, {"type": "node", "id": 9584302785, "lat": -33.7127068, "lon": 150.3120027, "tags": {"amenity": "fast_food", "cuisine": "sandwich", "name": "Jords Sandwich Bar", "phone": "+61 424 823 768"}}, {"type": "node", "id": 10090068122, "lat": -33.7337243, "lon": 150.4757393, "tags": {"addr:street": "Great Western Highway", "amenity": "fast_food", "cuisine": "burger", "name": "World Burger"}}, {"type": "node", "id": 10219365693, "lat": -33.7202958, "lon": 150.4288116, "tags": {"amenity": "fast_food", "cuisine": "chicken;portuguese;burger", "indoor_seating": "yes", "name": "Chick N Coop", "outdoor_seating": "yes"}}, {"type": "node", "id": 12410541830, "lat": -33.6823016, "lon": 150.5999666, "tags": {"amenity": "fast_food", "cuisine": "burger;sandwich", "name": "Winmalee Take-Away", "takeaway": "yes"}}, {"type": "node", "id": 12578422962, "lat": -33.7063281, "lon": 150.3190289, "tags": {"amenity": "fast_food", "branch": "Katoomba", "cuisine": "chicken", "name": "Broaster", "phone": "+61 2 4782 1811"}}]}